STARLINK-1725_new
1 16334C 20062K   21326.10832549  .00009441  00000-0  63265-3 0  3263
2 16334  53.0523 198.2498 0001746  77.0190 128.2474 15.06383870    13
STARLINK-1725_old
1 26334C 20062K   21325.18142267 -.00002257  00000-0 -15124-3 0  3251
2 26334  53.0523 202.4109 0001752  75.8660 140.0172 15.06391898    11
